ONEWEB-0427             
1 50499U 21132AG  24322.61350563  .00000074  00000+0  15570-3 0  9999
2 50499  87.9088  90.1744 0001541 108.6453 251.4846 13.18688422146927
ONEWEB-0429             
1 50500U 21132AH  24321.76621294  .00000049  00000+0  91854-4 0  9991
2 50500  87.9094  90.3589 0001679  92.4112 267.7213 13.18687529146778
ONEWEB-0430             
1 50501U 21132AJ  24322.58981151  .00000051  00000+0  96692-4 0  9992
2 50501  87.9092  90.1940 0001306  91.5203 268.6079 13.18685590146927
ONEWEB-0432             
1 50502U 21132AK  24322.62141550  .00000007  00000+0 -14792-4 0  9992
2 50502  87.9089  90.1787 0001093 140.7105 219.4107 13.18685253146892
ONEWEB-0440             
1 50503U 21132AL  24322.60877122  .00000086  00000+0  18453-3 0  9995
2 50503  87.9097  90.1749 0002072  93.1692 266.9677 13.18685265146870
ONEWEB-0450             
1 50504U 21132AM  24321.91970005  .00000101  00000+0  22286-3 0  9990
2 50504  87.9096  90.3410 0001560  84.9781 275.1529 13.18686424146815
ONEWEB-0410             
1 51622U 22012A   24321.87459131  .00000073  00000+0  15375-3 0  9996
2 51622  87.9070 120.8533 0002330 133.1244 227.0083 13.17647841138968
ONEWEB-0411             
1 51623U 22012B   24322.81932478  .00000533  00000+0  14907-2 0  9992
2 51623  87.8896 151.0327 0001021  67.1293 292.9942 13.10374760135082
